<?xml version="1.0" encoding="UTF-8"?>
<ndm xmlns:xsi="http://www.w3.org/2001/XMLSchema-instance" xsi:noNamespaceSchemaLocation="https://sanaregistry.org/r/ndmxml_unqualified/ndmxml-2.0.0-master-2.0.xsd">
<omm id="CCSDS_OMM_VERS" version="2.0">
<header><CREATION_DATE/><ORIGINATOR/></header><body><segment><metadata><OBJECT_NAME>ORBCOMM FM05 [-]</OBJECT_NAME><OBJECT_ID>1997-084F</OBJECT_ID><CENTER_NAME>EARTH</CENTER_NAME><REF_FRAME>TEME</REF_FRAME><TIME_SYSTEM>UTC</TIME_SYSTEM><MEAN_ELEMENT_THEORY>SGP4</MEAN_ELEMENT_THEORY></metadata><data><meanElements><EPOCH>2024-02-22T08:14:55.306752</EPOCH><MEAN_MOTION>14.42218204</MEAN_MOTION><ECCENTRICITY>.0003079</ECCENTRICITY><INCLINATION>45.0149</INCLINATION><RA_OF_ASC_NODE>149.8472</RA_OF_ASC_NODE><ARG_OF_PERICENTER>290.7376</ARG_OF_PERICENTER><MEAN_ANOMALY>69.3144</MEAN_ANOMALY></meanElements><tleParameters><EPHEMERIS_TYPE>0</EPHEMERIS_TYPE><CLASSIFICATION_TYPE>U</CLASSIFICATION_TYPE><NORAD_CAT_ID>25117</NORAD_CAT_ID><ELEMENT_SET_NO>999</ELEMENT_SET_NO><REV_AT_EPOCH>37204</REV_AT_EPOCH><BSTAR>.64804E-3</BSTAR><MEAN_MOTION_DOT>.2012E-4</MEAN_MOTION_DOT><MEAN_MOTION_DDOT>0</MEAN_MOTION_DDOT></tleParameters></data></segment></body></omm>
<omm id="CCSDS_OMM_VERS" version="2.0">
<header><CREATION_DATE/><ORIGINATOR/></header><body><segment><metadata><OBJECT_NAME>ORBCOMM FM06 [+]</OBJECT_NAME><OBJECT_ID>1997-084G</OBJECT_ID><CENTER_NAME>EARTH</CENTER_NAME><REF_FRAME>TEME</REF_FRAME><TIME_SYSTEM>UTC</TIME_SYSTEM><MEAN_ELEMENT_THEORY>SGP4</MEAN_ELEMENT_THEORY></metadata><data><meanElements><EPOCH>2024-02-21T13:03:36.520416</EPOCH><MEAN_MOTION>14.42210369</MEAN_MOTION><ECCENTRICITY>.0002241</ECCENTRICITY><INCLINATION>45.0139</INCLINATION><RA_OF_ASC_NODE>153.8437</RA_OF_ASC_NODE><ARG_OF_PERICENTER>283.4295</ARG_OF_PERICENTER><MEAN_ANOMALY>90.8691</MEAN_ANOMALY></meanElements><tleParameters><EPHEMERIS_TYPE>0</EPHEMERIS_TYPE><CLASSIFICATION_TYPE>U</CLASSIFICATION_TYPE><NORAD_CAT_ID>25118</NORAD_CAT_ID><ELEMENT_SET_NO>999</ELEMENT_SET_NO><REV_AT_EPOCH>37190</REV_AT_EPOCH><BSTAR>.73226E-3</BSTAR><MEAN_MOTION_DOT>.2292E-4</MEAN_MOTION_DOT><MEAN_MOTION_DDOT>0</MEAN_MOTION_DDOT></tleParameters></data></segment></body></omm>
<omm id="CCSDS_OMM_VERS" version="2.0">
<header><CREATION_DATE/><ORIGINATOR/></header><body><segment><metadata><OBJECT_NAME>ORBCOMM FM07 [-]</OBJECT_NAME><OBJECT_ID>1997-084H</OBJECT_ID><CENTER_NAME>EARTH</CENTER_NAME><REF_FRAME>TEME</REF_FRAME><TIME_SYSTEM>UTC</TIME_SYSTEM><MEAN_ELEMENT_THEORY>SGP4</MEAN_ELEMENT_THEORY></metadata><data><meanElements><EPOCH>2024-02-21T09:21:40.650912</EPOCH><MEAN_MOTION>14.42140795</MEAN_MOTION><ECCENTRICITY>.0003923</ECCENTRICITY><INCLINATION>45.0133</INCLINATION><RA_OF_ASC_NODE>155.0737</RA_OF_ASC_NODE><ARG_OF_PERICENTER>283.9218</ARG_OF_PERICENTER><MEAN_ANOMALY>76.1195</MEAN_ANOMALY></meanElements><tleParameters><EPHEMERIS_TYPE>0</EPHEMERIS_TYPE><CLASSIFICATION_TYPE>U</CLASSIFICATION_TYPE><NORAD_CAT_ID>25119</NORAD_CAT_ID><ELEMENT_SET_NO>999</ELEMENT_SET_NO><REV_AT_EPOCH>37187</REV_AT_EPOCH><BSTAR>.76724E-3</BSTAR><MEAN_MOTION_DOT>.2405E-4</MEAN_MOTION_DOT><MEAN_MOTION_DDOT>0</MEAN_MOTION_DDOT></tleParameters></data></segment></body></omm>
<omm id="CCSDS_OMM_VERS" version="2.0">
<header><CREATION_DATE/><ORIGINATOR/></header><body><segment><metadata><OBJECT_NAME>ORBCOMM FM03 [-]</OBJECT_NAME><OBJECT_ID>1998-007B</OBJECT_ID><CENTER_NAME>EARTH</CENTER_NAME><REF_FRAME>TEME</REF_FRAME><TIME_SYSTEM>UTC</TIME_SYSTEM><MEAN_ELEMENT_THEORY>SGP4</MEAN_ELEMENT_THEORY></metadata><data><meanElements><EPOCH>2024-02-22T10:05:29.776992</EPOCH><MEAN_MOTION>14.31864187</MEAN_MOTION><ECCENTRICITY>.0046827</ECCENTRICITY><INCLINATION>107.9776</INCLINATION><RA_OF_ASC_NODE>229.8836</RA_OF_ASC_NODE><ARG_OF_PERICENTER>5.4887</ARG_OF_PERICENTER><MEAN_ANOMALY>354.6756</MEAN_ANOMALY></meanElements><tleParameters><EPHEMERIS_TYPE>0</EPHEMERIS_TYPE><CLASSIFICATION_TYPE>U</CLASSIFICATION_TYPE><NORAD_CAT_ID>25158</NORAD_CAT_ID><ELEMENT_SET_NO>999</ELEMENT_SET_NO><REV_AT_EPOCH>35530</REV_AT_EPOCH><BSTAR>.61286E-3</BSTAR><MEAN_MOTION_DOT>.1531E-4</MEAN_MOTION_DOT><MEAN_MOTION_DDOT>0</MEAN_MOTION_DDOT></tleParameters></data></segment></body></omm>
<omm id="CCSDS_OMM_VERS" version="2.0">
<header><CREATION_DATE/><ORIGINATOR/></header><body><segment><metadata><OBJECT_NAME>ORBCOMM FM04 [+]</OBJECT_NAME><OBJECT_ID>1998-007C</OBJECT_ID><CENTER_NAME>EARTH</CENTER_NAME><REF_FRAME>TEME</REF_FRAME><TIME_SYSTEM>UTC</TIME_SYSTEM><MEAN_ELEMENT_THEORY>SGP4</MEAN_ELEMENT_THEORY></metadata><data><meanElements><EPOCH>2024-02-22T11:49:51.266208</EPOCH><MEAN_MOTION>14.32118206</MEAN_MOTION><ECCENTRICITY>.0042471</ECCENTRICITY><INCLINATION>107.9764</INCLINATION><RA_OF_ASC_NODE>232.9181</RA_OF_ASC_NODE><ARG_OF_PERICENTER>2.9270</ARG_OF_PERICENTER><MEAN_ANOMALY>357.2110</MEAN_ANOMALY></meanElements><tleParameters><EPHEMERIS_TYPE>0</EPHEMERIS_TYPE><CLASSIFICATION_TYPE>U</CLASSIFICATION_TYPE><NORAD_CAT_ID>25159</NORAD_CAT_ID><ELEMENT_SET_NO>999</ELEMENT_SET_NO><REV_AT_EPOCH>35545</REV_AT_EPOCH><BSTAR>.58546E-3</BSTAR><MEAN_MOTION_DOT>.1461E-4</MEAN_MOTION_DOT><MEAN_MOTION_DDOT>0</MEAN_MOTION_DDOT></tleParameters></data></segment></body></omm>
<omm id="CCSDS_OMM_VERS" version="2.0">
<header><CREATION_DATE/><ORIGINATOR/></header><body><segment><metadata><OBJECT_NAME>ORBCOMM FM17 [-]</OBJECT_NAME><OBJECT_ID>1998-046A</OBJECT_ID><CENTER_NAME>EARTH</CENTER_NAME><REF_FRAME>TEME</REF_FRAME><TIME_SYSTEM>UTC</TIME_SYSTEM><MEAN_ELEMENT_THEORY>SGP4</MEAN_ELEMENT_THEORY></metadata><data><meanElements><EPOCH>2024-02-22T04:46:47.578656</EPOCH><MEAN_MOTION>14.32840636</MEAN_MOTION><ECCENTRICITY>.0003755</ECCENTRICITY><INCLINATION>44.9962</INCLINATION><RA_OF_ASC_NODE>3.5144</RA_OF_ASC_NODE><ARG_OF_PERICENTER>319.0437</ARG_OF_PERICENTER><MEAN_ANOMALY>41.0127</MEAN_ANOMALY></meanElements><tleParameters><EPHEMERIS_TYPE>0</EPHEMERIS_TYPE><CLASSIFICATION_TYPE>U</CLASSIFICATION_TYPE><NORAD_CAT_ID>25413</NORAD_CAT_ID><ELEMENT_SET_NO>999</ELEMENT_SET_NO><REV_AT_EPOCH>33430</REV_AT_EPOCH><BSTAR>.60132E-3</BSTAR><MEAN_MOTION_DOT>.1515E-4</MEAN_MOTION_DOT><MEAN_MOTION_DDOT>0</MEAN_MOTION_DDOT></tleParameters></data></segment></body></omm>
<omm id="CCSDS_OMM_VERS" version="2.0">
<header><CREATION_DATE/><ORIGINATOR/></header><body><segment><metadata><OBJECT_NAME>ORBCOMM FM18 [-]</OBJECT_NAME><OBJECT_ID>1998-046B</OBJECT_ID><CENTER_NAME>EARTH</CENTER_NAME><REF_FRAME>TEME</REF_FRAME><TIME_SYSTEM>UTC</TIME_SYSTEM><MEAN_ELEMENT_THEORY>SGP4</MEAN_ELEMENT_THEORY></metadata><data><meanElements><EPOCH>2024-02-22T01:30:42.448320</EPOCH><MEAN_MOTION>14.35503230</MEAN_MOTION><ECCENTRICITY>.0004682</ECCENTRICITY><INCLINATION>44.9931</INCLINATION><RA_OF_ASC_NODE>292.8838</RA_OF_ASC_NODE><ARG_OF_PERICENTER>20.2273</ARG_OF_PERICENTER><MEAN_ANOMALY>339.8759</MEAN_ANOMALY></meanElements><tleParameters><EPHEMERIS_TYPE>0</EPHEMERIS_TYPE><CLASSIFICATION_TYPE>U</CLASSIFICATION_TYPE><NORAD_CAT_ID>25414</NORAD_CAT_ID><ELEMENT_SET_NO>999</ELEMENT_SET_NO><REV_AT_EPOCH>33521</REV_AT_EPOCH><BSTAR>.5982E-3</BSTAR><MEAN_MOTION_DOT>.1596E-4</MEAN_MOTION_DOT><MEAN_MOTION_DDOT>0</MEAN_MOTION_DDOT></tleParameters></data></segment></body></omm>
<omm id="CCSDS_OMM_VERS" version="2.0">
<header><CREATION_DATE/><ORIGINATOR/></header><body><segment><metadata><OBJECT_NAME>ORBCOMM FM19 [+]</OBJECT_NAME><OBJECT_ID>1998-046C</OBJECT_ID><CENTER_NAME>EARTH</CENTER_NAME><REF_FRAME>TEME</REF_FRAME><TIME_SYSTEM>UTC</TIME_SYSTEM><MEAN_ELEMENT_THEORY>SGP4</MEAN_ELEMENT_THEORY></metadata><data><meanElements><EPOCH>2024-02-21T22:52:47.636832</EPOCH><MEAN_MOTION>14.35339416</MEAN_MOTION><ECCENTRICITY>.0003577</ECCENTRICITY><INCLINATION>44.9943</INCLINATION><RA_OF_ASC_NODE>294.7083</RA_OF_ASC_NODE><ARG_OF_PERICENTER>11.1285</ARG_OF_PERICENTER><MEAN_ANOMALY>3.6196</MEAN_ANOMALY></meanElements><tleParameters><EPHEMERIS_TYPE>0</EPHEMERIS_TYPE><CLASSIFICATION_TYPE>U</CLASSIFICATION_TYPE><NORAD_CAT_ID>25415</NORAD_CAT_ID><ELEMENT_SET_NO>999</ELEMENT_SET_NO><REV_AT_EPOCH>33499</REV_AT_EPOCH><BSTAR>.54015E-3</BSTAR><MEAN_MOTION_DOT>.1422E-4</MEAN_MOTION_DOT><MEAN_MOTION_DDOT>0</MEAN_MOTION_DDOT></tleParameters></data></segment></body></omm>

</ndm>
