ORBCOMM FM05 [-]        
1 25117U 97084F   24053.34369568  .00002012  00000+0  64804-3 0  9991
2 25117  45.0149 149.8472 0003079 290.7376  69.3144 14.42218204372040
ORBCOMM FM06 [+]        
1 25118U 97084G   24052.54417269  .00002292  00000+0  73226-3 0  9993
2 25118  45.0139 153.8437 0002241 283.4295  90.8691 14.42210369371909
ORBCOMM FM07 [-]        
1 25119U 97084H   24052.39005383  .00002405  00000+0  76724-3 0  9999
2 25119  45.0133 155.0737 0003923 283.9218  76.1195 14.42140795371876
ORBCOMM FM03 [-]        
1 25158U 98007B   24053.42048353  .00001531  00000+0  61286-3 0  9993
2 25158 107.9776 229.8836 0046827   5.4887 354.6756 14.31864187355302
ORBCOMM FM04 [+]        
1 25159U 98007C   24053.49295447  .00001461  00000+0  58546-3 0  9996
2 25159 107.9764 232.9181 0042471   2.9270 357.2110 14.32118206355451
ORBCOMM FM17 [-]        
1 25413U 98046A   24053.19916179  .00001515  00000+0  60132-3 0  9995
2 25413  44.9962   3.5144 0003755 319.0437  41.0127 14.32840636334300
ORBCOMM FM18 [-]        
1 25414U 98046B   24053.06299130  .00001596  00000+0  59820-3 0  9994
2 25414  44.9931 292.8838 0004682  20.2273 339.8759 14.35503230335218
ORBCOMM FM19 [+]        
1 25415U 98046C   24052.95332913  .00001422  00000+0  54015-3 0  9998
2 25415  44.9943 294.7083 0003577  11.1285   3.6196 14.35339416334997
